******** Week 91 almanac for PRN-18 ********
ID:                         18
Health:                     000
Eccentricity:               0.1186370850E-002
Time of Applicability(s):  61440.0000
Orbital Inclination(rad):   0.9664222774
Rate of Right Ascen(r/s):  -0.8171768958E-008
SQRT(A)  (m 1/2):           5153.644531
Right Ascen at Week(rad):  -0.9171104127E+000
Argument of Perigee(rad):   3.024839713
Mean Anom(rad):             0.1869069828E+001
Af0(s):                     0.3385543823E-003
Af1(s/s):                   0.3637978807E-011
week:                        91

******** Week 91 almanac for PRN-19 ********
ID:                         19
Health:                     000
Eccentricity:               0.8987903595E-002
Time of Applicability(s):  61440.0000
Orbital Inclination(rad):   0.9813006927
Rate of Right Ascen(r/s):  -0.7703178011E-008
SQRT(A)  (m 1/2):           5153.570801
Right Ascen at Week(rad):  -0.1882892882E+001
Argument of Perigee(rad):   1.766148181
Mean Anom(rad):             0.1094073597E+000
Af0(s):                    -0.5626678467E-004
Af1(s/s):                   0.3637978807E-011
week:                        91

******** Week 91 almanac for PRN-20 ********
ID:                         20
Health:                     000
Eccentricity:               0.5870342255E-002
Time of Applicability(s):  61440.0000
Orbital Inclination(rad):   0.9368631867
Rate of Right Ascen(r/s):  -0.8274630386E-008
SQRT(A)  (m 1/2):           5153.611328
Right Ascen at Week(rad):  -0.3343074439E-001
Argument of Perigee(rad):   2.814133445
Mean Anom(rad):             0.1151442831E+001
Af0(s):                     0.5254745483E-003
Af1(s/s):                   0.0000000000E+000
week:                        91

******** Week 91 almanac for PRN-21 ********
ID:                         21
Health:                     000
Eccentricity:               0.2415132523E-001
Time of Applicability(s):  61440.0000
Orbital Inclination(rad):   0.9556125066
Rate of Right Ascen(r/s):  -0.8171768958E-008
SQRT(A)  (m 1/2):           5153.685547
Right Ascen at Week(rad):  -0.1010874988E+001
Argument of Perigee(rad):  -1.219152953
Mean Anom(rad):            -0.2118398257E+001
Af0(s):                     0.8392333984E-004
Af1(s/s):                   0.3637978807E-011
week:                        91

******** Week 91 almanac for PRN-22 ********
ID:                         22
Health:                     000
Eccentricity:               0.6833076477E-002
Time of Applicability(s):  61440.0000
Orbital Inclination(rad):   0.9335495485
Rate of Right Ascen(r/s):  -0.8286059433E-008
SQRT(A)  (m 1/2):           5153.583008
Right Ascen at Week(rad):   0.1327252908E-001
Argument of Perigee(rad):  -1.055765273
Mean Anom(rad):             0.2900719470E+001
Af0(s):                    -0.7047653198E-003
Af1(s/s):                   0.7275957614E-011
week:                        91

******** Week 91 almanac for PRN-23 ********
ID:                         23
Health:                     000
Eccentricity:               0.1084804535E-002
Time of Applicability(s):  61440.0000
Orbital Inclination(rad):   0.9630666945
Rate of Right Ascen(r/s):  -0.7977475151E-008
SQRT(A)  (m 1/2):           5153.591309
Right Ascen at Week(rad):   0.8195224948E-001
Argument of Perigee(rad):   2.294525916
Mean Anom(rad):             0.1560408625E+001
Af0(s):                     0.1144409180E-003
Af1(s/s):                   0.3637978807E-011
week:                        91

******** Week 91 almanac for PRN-24 ********
ID:                         24
Health:                     000
Eccentricity:               0.1079559326E-001
Time of Applicability(s):  61440.0000
Orbital Inclination(rad):   0.9352393242
Rate of Right Ascen(r/s):  -0.8228914196E-008
SQRT(A)  (m 1/2):           5153.555176
Right Ascen at Week(rad):   0.2135201263E+001
Argument of Perigee(rad):   0.717043141
Mean Anom(rad):             0.2056942777E+001
Af0(s):                     0.3814697266E-005
Af1(s/s):                   0.0000000000E+000
week:                        91

******** Week 91 almanac for PRN-25 ********
ID:                         25
Health:                     000
Eccentricity:               0.9591579437E-002
Time of Applicability(s):  61440.0000
Orbital Inclination(rad):   0.9631206235
Rate of Right Ascen(r/s):  -0.7863184676E-008
SQRT(A)  (m 1/2):           5153.634277
Right Ascen at Week(rad):  -0.3035095588E+001
Argument of Perigee(rad):   0.930693034
Mean Anom(rad):             0.8452548727E-001
Af0(s):                     0.5245208740E-004
Af1(s/s):                   0.7275957614E-011
week:                        91

******** Week 91 almanac for PRN-26 ********
ID:                         26
Health:                     000
Eccentricity:               0.5561351776E-002
Time of Applicability(s):  61440.0000
Orbital Inclination(rad):   0.9440896743
Rate of Right Ascen(r/s):  -0.8091765626E-008
SQRT(A)  (m 1/2):           5153.675293
Right Ascen at Week(rad):  -0.3074469759E+001
Argument of Perigee(rad):   0.239939912
Mean Anom(rad):            -0.5040744759E+000
Af0(s):                     0.2479553223E-004
Af1(s/s):                   0.7275957614E-011
week:                        91

******** Week 91 almanac for PRN-27 ********
ID:                         27
Health:                     000
Eccentricity:               0.8781433105E-002
Time of Applicability(s):  61440.0000
Orbital Inclination(rad):   0.9768785137
Rate of Right Ascen(r/s):  -0.7726036106E-008
SQRT(A)  (m 1/2):           5153.634277
Right Ascen at Week(rad):  -0.1988050711E+001
Argument of Perigee(rad):   0.565156947
Mean Anom(rad):            -0.2360165388E+001
Af0(s):                    -0.4863739014E-004
Af1(s/s):                  -0.7275957614E-011
week:                        91

******** Week 91 almanac for PRN-28 ********
ID:                         28
Health:                     000
Eccentricity:               0.1813602448E-001
Time of Applicability(s):  61440.0000
Orbital Inclination(rad):   0.9749969904
Rate of Right Ascen(r/s):  -0.7714607059E-008
SQRT(A)  (m 1/2):           5153.620605
Right Ascen at Week(rad):  -0.2941049383E+001
Argument of Perigee(rad):  -1.359379245
Mean Anom(rad):            -0.1637564938E+001
Af0(s):                     0.6341934204E-003
Af1(s/s):                  -0.3637978807E-011
week:                        91

******** Week 91 almanac for PRN-29 ********
ID:                         29
Health:                     000
Eccentricity:               0.1447200775E-002
Time of Applicability(s):  61440.0000
Orbital Inclination(rad):   0.9846982204
Rate of Right Ascen(r/s):  -0.7668890869E-008
SQRT(A)  (m 1/2):           5153.662598
Right Ascen at Week(rad):  -0.1916058850E+001
Argument of Perigee(rad):   2.219406173
Mean Anom(rad):            -0.2319845213E+001
Af0(s):                    -0.2689361572E-003
Af1(s/s):                  -0.7275957614E-011
week:                        91

******** Week 91 almanac for PRN-30 ********
ID:                         30
Health:                     000
Eccentricity:               0.4745006561E-002
Time of Applicability(s):  61440.0000
Orbital Inclination(rad):   0.9372047371
Rate of Right Ascen(r/s):  -0.8240343243E-008
SQRT(A)  (m 1/2):           5153.698242
Right Ascen at Week(rad):   0.2230414432E+001
Argument of Perigee(rad):  -2.847141371
Mean Anom(rad):             0.1064383804E+001
Af0(s):                    -0.3633499146E-003
Af1(s/s):                  -0.7275957614E-011
week:                        91

******** Week 91 almanac for PRN-31 ********
ID:                         31
Health:                     000
Eccentricity:               0.9977340698E-002
Time of Applicability(s):  61440.0000
Orbital Inclination(rad):   0.9563135837
Rate of Right Ascen(r/s):  -0.8023191341E-008
SQRT(A)  (m 1/2):           5153.656250
Right Ascen at Week(rad):   0.2227535222E+001
Argument of Perigee(rad):   0.228290496
Mean Anom(rad):             0.6445119899E+000
Af0(s):                    -0.9155273438E-004
Af1(s/s):                  -0.3637978807E-011
week:                        91

******** Week 91 almanac for PRN-32 ********
ID:                         32
Health:                     000
Eccentricity:               0.4379749298E-002
Time of Applicability(s):  61440.0000
Orbital Inclination(rad):   0.9568109291
Rate of Right Ascen(r/s):  -0.7748894201E-008
SQRT(A)  (m 1/2):           5153.573242
Right Ascen at Week(rad):   0.1147032262E+001
Argument of Perigee(rad):  -2.462029427
Mean Anom(rad):            -0.1617843772E+001
Af0(s):                     0.1239776611E-004
Af1(s/s):                   0.3637978807E-011
week:                        91

